KUIPER-00619            
1 69777U 26151Q   26200.26877199  .00009543  00000+0  25633-3 0  9992
2 69777  51.8811 160.5397 0001749  84.0608 276.0578 15.38604927  2642
KUIPER-00621            
1 69778U 26151R   26200.27131013  .00007434  00000+0  20390-3 0  9994
2 69778  51.8796 160.5599 0003334 139.3055 220.8182 15.38312623  2648
KUIPER-00622            
1 69779U 26151S   26200.28589181  .00011304  00000+0  31771-3 0  9995
2 69779  51.8742 160.6526 0006655 160.4946 199.6296 15.36979546  2644
KUIPER-00623            
1 69780U 26151T   26198.26556190  .00133416  00000+0  34980-2 0  9998
2 69780  51.8777 170.3650 0006129 146.6000 213.5375 15.37672053  2337
KUIPER-00626            
1 69781U 26151U   26200.16976289  .00005691  00000+0  17632-3 0  9996
2 69781  51.8729 161.3712 0010726 179.1743 180.9262 15.34917480  2624
KUIPER-00627            
1 69782U 26151V   26200.23724790 -.00068435  00000+0 -20283-2 0  9995
2 69782  51.8694 161.0688 0009515 187.3495 172.7353 15.34383700  2637
KUIPER-00629            
1 69783U 26151W   26200.25002315 -.01234732  00000+0 -45030-1 0  9992
2 69783  51.8788 160.9811 0006424 173.0640 287.9389 15.30384521  2960
KUIPER-00631            
1 69784U 26151X   26200.25002315  .00005131  00000+0  18654-3 0  9993
2 69784  51.8755 160.9634 0008117 172.0235 289.3926 15.29939120  1307
KUIPER-00634            
1 69785U 26151Y   26200.27765007  .00010740  00000+0  29463-3 0  9992
2 69785  51.8781 160.6005 0003682 150.3811 209.7385 15.37805044  2646
KUIPER-00639            
1 69786U 26151Z   26200.29693365 -.00025915  00000+0 -74087-3 0  9996
2 69786  51.8695 160.7195 0009552 174.4078 185.7017 15.35046639  2646
KUIPER-00641            
1 69787U 26151AA  26200.25002315  .00018645  00000+0  56176-3 0  9991
2 69787  51.8681 161.0246 0011473 174.5198 247.4049 15.34308057  3277
KUIPER-00644            
1 69788U 26151AB  26200.25002315  .00025678  00000+0  71682-3 0  9995
2 69788  51.8750 160.8847 0008118 172.9715 320.5134 15.36532063  3577
KUIPER-00646            
1 69789U 26151AC  26200.29555927 -.00066035  00000+0 -18801-2 0  9999
2 69789  51.8703 160.7124 0009096 181.1324 178.9643 15.35627559  2648
KUIPER-00647            
1 69790U 26151AD  26200.30076938  .00021319  00000+0  62667-3 0  9997
2 69790  51.8664 160.7423 0010519 183.8759 176.2147 15.35006699  2647
KUIPER-00662            
1 69791U 26151AE  26200.22592641  .00009620  00000+0  27574-3 0  9992
2 69791  51.8750 160.9998 0008199 173.5382 186.5711 15.36544855  2634
LINK                    
1 69792U 26152A   26199.55753721  .00092753  00000+0  77286-3 0  9999
2 69792  20.5910 301.5041 0024958  41.6624 318.5720 15.67914384  2384
2026-152B               
1 69793U 26152B   26199.95447191  .00033307  00000+0  30949-3 0  9990
2 69793  20.5977 298.7275 0023035  45.0737 315.1574 15.65042614  2445
ISS OBJECT YJ           
1 69794U 98067YJ  26200.11179682  .00020181  00000+0  35807-3 0  9997
2 69794  51.6314 141.9980 0007744 325.3925  34.6560 15.50182327  2606
ISS OBJECT YK           
1 69795U 98067YK  26200.23503200  .00033983  00000+0  57980-3 0  9998
2 69795  51.6313 141.3216 0006577 333.1565  26.9083 15.50990090  2622
ISS OBJECT YL           
1 69796U 98067YL  26200.10779527  .00026702  00000+0  46238-3 0  9997
2 69796  51.6315 141.9719 0008705 326.3612  33.6823 15.50684262  2595
ISS OBJECT YM           
1 69797U 98067YM  26199.14076886  .00029042  00000+0  50205-3 0  9996
2 69797  51.6314 146.7645 0009527 314.1271  45.8934 15.50677012  2431
ISS OBJECT YN           
1 69798U 98067YN  26200.10872322  .00018086  00000+0  31862-3 0  9999
2 69798  51.6318 141.9780 0009202 329.2004  30.8444 15.50452784  2600
PROVES-ELECTRA          
1 69799U 98067YP  26200.10737872  .00026602  00000+0  45997-3 0  9997
2 69799  51.6316 141.9691 0009675 317.1794  42.8441 15.50719753  2596
QIANFAN-201             
1 69800U 26153A   26199.18856381 -.01723216  00000+0 -84414+0 0  9990
2 69800  88.9921 358.7016 0006905 149.7286 210.4306 14.22000035  1979
QIANFAN-202             
1 69801U 26153B   26200.27266690  .00000172  00000+0  75823-4 0  9997
2 69801  88.9927 358.5846 0007139 162.2751 197.8689 14.18844017  2123
QIANFAN-203             
1 69802U 26153C   26199.34660293 -.01871829  00000+0 -99096+0 0  9991
2 69802  88.9920 358.6881 0012649 191.3457 168.7448 14.17511061  1998
QIANFAN-204             
1 69803U 26153D   26200.26761101  .00000133  00000+0  55862-4 0  9993
2 69803  88.9927 358.5838 0008103 165.6876 194.4545 14.20114716  2126
QIANFAN-205             
1 69804U 26153E   26199.91204104  .00000105  00000+0  40608-4 0  9999
2 69804  88.9926 358.6234 0007957 170.5286 189.6057 14.22264904  2078
QIANFAN-206             
1 69805U 26153F   26199.90127854  .00000046  00000+0  13589-4 0  9997
2 69805  88.9926 358.6219 0008440 171.1991 188.9351 14.24034656  2070
QIANFAN-207             
1 69806U 26153G   26200.25076515  .00000140  00000+0  54340-4 0  9991
2 69806  88.9927 358.5812 0007925 170.1910 189.9439 14.24251246  2127
