OBJECT_NAME,OBJECT_ID,EPOCH,MEAN_MOTION,ECCENTRICITY,INCLINATION,RA_OF_ASC_NODE,ARG_OF_PERICENTER,MEAN_ANOMALY,EPHEMERIS_TYPE,CLASSIFICATION_TYPE,NORAD_CAT_ID,ELEMENT_SET_NO,REV_AT_EPOCH,BSTAR,MEAN_MOTION_DOT,MEAN_MOTION_DDOT
KUIPER-00619,2026-151Q,2026-07-19T06:27:01.899936,15.38604927,.00017493,51.8811,160.5397,84.0608,276.0578,0,U,69777,999,264,.25633469E-3,.9543E-4,0
KUIPER-00621,2026-151R,2026-07-19T06:30:41.195232,15.38312623,.00033345,51.8796,160.5599,139.3055,220.8182,0,U,69778,999,264,.20390106E-3,.7434E-4,0
KUIPER-00622,2026-151S,2026-07-19T06:51:41.052384,15.36979546,.00066554,51.8742,160.6526,160.4946,199.6296,0,U,69779,999,264,.31771213E-3,.11304E-3,0
KUIPER-00623,2026-151T,2026-07-17T06:22:24.548160,15.37672053,.0006129,51.8777,170.3650,146.6000,213.5375,0,U,69780,999,233,.3498E-2,.133416E-2,0
KUIPER-00626,2026-151U,2026-07-19T04:04:27.513696,15.34917480,.00107264,51.8729,161.3712,179.1743,180.9262,0,U,69781,999,262,.17631818E-3,.5691E-4,0
KUIPER-00627,2026-151V,2026-07-19T05:41:38.218560,15.34383700,.00095155,51.8694,161.0688,187.3495,172.7353,0,U,69782,999,263,-.20283356E-2,-.68435E-3,0
KUIPER-00629,2026-151W,2026-07-19T06:00:02.000160,15.30384521,.00064244,51.8788,160.9811,173.0640,287.9389,0,U,69783,999,296,-.45030011E-1,-.1234732E-1,0
KUIPER-00631,2026-151X,2026-07-19T06:00:02.000160,15.29939120,.00081177,51.8755,160.9634,172.0235,289.3926,0,U,69784,999,130,.18653728E-3,.5131E-4,0
KUIPER-00634,2026-151Y,2026-07-19T06:39:48.966048,15.37805044,.00036821,51.8781,160.6005,150.3811,209.7385,0,U,69785,999,264,.29463417E-3,.1074E-3,0
KUIPER-00639,2026-151Z,2026-07-19T07:07:35.067360,15.35046639,.00095528,51.8695,160.7195,174.4078,185.7017,0,U,69786,999,264,-.740866E-3,-.25915E-3,0
KUIPER-00641,2026-151AA,2026-07-19T06:00:02.000160,15.34308057,.00114733,51.8681,161.0246,174.5198,247.4049,0,U,69787,999,327,.56176036E-3,.18645E-3,0
KUIPER-00644,2026-151AB,2026-07-19T06:00:02.000160,15.36532063,.00081185,51.8750,160.8847,172.9715,320.5134,0,U,69788,999,357,.71681589E-3,.25678E-3,0
KUIPER-00646,2026-151AC,2026-07-19T07:05:36.320928,15.35627559,.00090966,51.8703,160.7124,181.1324,178.9643,0,U,69789,999,264,-.18800721E-2,-.66035E-3,0
KUIPER-00647,2026-151AD,2026-07-19T07:13:06.474432,15.35006699,.00105196,51.8664,160.7423,183.8759,176.2147,0,U,69790,999,264,.62666842E-3,.21319E-3,0
KUIPER-00662,2026-151AE,2026-07-19T05:25:20.041824,15.36544855,.00081997,51.8750,160.9998,173.5382,186.5711,0,U,69791,999,263,.27574216E-3,.962E-4,0
LINK,2026-152A,2026-07-18T13:22:51.214944,15.67914384,.0024958,20.5910,301.5041,41.6624,318.5720,0,U,69792,999,238,.77286E-3,.92753E-3,0
2026-152B,2026-152B,2026-07-18T22:54:26.373024,15.65042614,.00230358,20.5977,298.7275,45.0737,315.1574,0,U,69793,999,244,.30949102E-3,.33307E-3,0
ISS OBJECT YJ,1998-067YJ,2026-07-19T02:40:59.245248,15.50182327,.00077446,51.6314,141.9980,325.3925,34.6560,0,U,69794,999,260,.35807171E-3,.20181E-3,0
ISS OBJECT YK,1998-067YK,2026-07-19T05:38:26.764800,15.50990090,.00065773,51.6313,141.3216,333.1565,26.9083,0,U,69795,999,262,.57980494E-3,.33983E-3,0
ISS OBJECT YL,1998-067YL,2026-07-19T02:35:13.511328,15.50684262,.00087053,51.6315,141.9719,326.3612,33.6823,0,U,69796,999,259,.46238204E-3,.26702E-3,0
ISS OBJECT YM,1998-067YM,2026-07-18T03:22:42.429504,15.50677012,.00095277,51.6314,146.7645,314.1271,45.8934,0,U,69797,999,243,.50205193E-3,.29042E-3,0
ISS OBJECT YN,1998-067YN,2026-07-19T02:36:33.686208,15.50452784,.0009202,51.6318,141.9780,329.2004,30.8444,0,U,69798,999,260,.31862058E-3,.18086E-3,0
PROVES-ELECTRA,1998-067YP,2026-07-19T02:34:37.521408,15.50719753,.00096759,51.6316,141.9691,317.1794,42.8441,0,U,69799,999,259,.4599651E-3,.26602E-3,0
QIANFAN-201,2026-153A,2026-07-18T04:31:31.913184,14.22000035,.00069053,88.9921,358.7016,149.7286,210.4306,0,U,69800,999,197,-.84413937E+0,-.1723216E-1,0
QIANFAN-202,2026-153B,2026-07-19T06:32:38.420160,14.18844017,.00071399,88.9927,358.5846,162.2751,197.8689,0,U,69801,999,212,.75822692E-4,.172E-5,0
QIANFAN-203,2026-153C,2026-07-18T08:19:06.493152,14.17511061,.00126494,88.9920,358.6881,191.3457,168.7448,0,U,69802,999,199,-.99096051E+0,-.1871829E-1,0
QIANFAN-204,2026-153D,2026-07-19T06:25:21.591264,14.20114716,.0008103,88.9927,358.5838,165.6876,194.4545,0,U,69803,999,212,.5586198E-4,.133E-5,0
QIANFAN-205,2026-153E,2026-07-18T21:53:20.345856,14.22264904,.00079571,88.9926,358.6234,170.5286,189.6057,0,U,69804,999,207,.4060826E-4,.105E-5,0
QIANFAN-206,2026-153F,2026-07-18T21:37:50.465856,14.24034656,.000844,88.9926,358.6219,171.1991,188.9351,0,U,69805,999,207,.13589344E-4,.46E-6,0
QIANFAN-207,2026-153G,2026-07-19T06:01:06.108960,14.24251246,.00079254,88.9927,358.5812,170.1910,189.9439,0,U,69806,999,212,.54339842E-4,.14E-5,0
